{
    "links": {
        "self": "http://www.neowsapp.com/rest/v1/neo/3781575?api_key=iIulBulltgU6a56xZRHN4H3l9WmuAYTsLGpBGhQ2"
    },
    "id": "3781575",
    "neo_reference_id": "3781575",
    "name": "(2017 RK16)",
    "designation": "2017 RK16",
    "nasa_jpl_url": "http://ssd.jpl.nasa.gov/sbdb.cgi?sstr=3781575",
    "absolute_magnitude_h": 24.2,
    "estimated_diameter": {
        "kilometers": {
            "estimated_diameter_min": 0.0384197891,
            "estimated_diameter_max": 0.0859092601
        },
        "meters": {
            "estimated_diameter_min": 38.4197891064,
            "estimated_diameter_max": 85.9092601232
        },
        "miles": {
            "estimated_diameter_min": 0.0238729428,
            "estimated_diameter_max": 0.0533815229
        },
        "feet": {
            "estimated_diameter_min": 126.0491808919,
            "estimated_diameter_max": 281.8545369825
        }
    },
    "is_potentially_hazardous_asteroid": false,
    "close_approach_data": [
        {
            "close_approach_date": "2017-09-09",
            "close_approach_date_full": "2017-Sep-09 04:01",
            "epoch_date_close_approach": 1504929660000,
            "relative_velocity": {
                "kilometers_per_second": "17.1276542478",
                "kilometers_per_hour": "61659.5552921261",
                "miles_per_hour": "38312.8497869325"
            },
            "miss_distance": {
                "astronomical": "0.1394930628",
                "lunar": "54.2628014292",
                "kilometers": "20867865.074656236",
                "miles": "12966690.0839826168"
            },
            "orbiting_body": "Earth"
        }
    ],
    "orbital_data": {
        "orbit_id": "1",
        "orbit_determination_date": "2017-09-19 19:12:05",
        "first_observation_date": "2017-09-14",
        "last_observation_date": "2017-09-19",
        "data_arc_in_days": 5,
        "observations_used": 11,
        "orbit_uncertainty": "9",
        "minimum_orbit_intersection": ".134673",
        "jupiter_tisserand_invariant": "4.480",
        "epoch_osculation": "2458011.5",
        "eccentricity": ".259717291890033",
        "semi_major_axis": "1.437134408894316",
        "inclination": "32.17555773446637",
        "ascending_node_longitude": "170.8416388337886",
        "orbital_period": "629.2808394608276",
        "perihelion_distance": "1.063885752134301",
        "perihelion_argument": "129.8990930895895",
        "aphelion_distance": "1.810383065654331",
        "perihelion_time": "2457956.700949247278",
        "mean_anomaly": "31.34952954849654",
        "mean_motion": ".5720816167046349",
        "equinox": "J2000",
        "orbit_class": {
            "orbit_class_type": "AMO",
            "orbit_class_description": "Near-Earth asteroid orbits similar to that of 1221 Amor",
            "orbit_class_range": "1.017 AU < q (perihelion) < 1.3 AU"
        }
    },
    "is_sentry_object": false
}